{
  "type": "FeatureCollection",
  "features": [
    {
      "type": "Feature",
      "properties": {
        "norad_id": 62876,
        "name": "QZS-6 (QZSS/PRN 200)",
        "group": "gnss",
        "lat": 0.014397465578678463,
        "lon": 53.41611135074125,
        "alt_km": 35790.62698480816,
        "timestamp": "2025-12-15T15:53:20.099348+00:00",
        "meta_object_name": "QZS-6 (QZSS/PRN 200)",
        "meta_object_id": "2025-023A",
        "meta_epoch": "2025-12-14T22:34:38.633952",
        "meta_mean_motion": 1.00274112,
        "meta_eccentricity": 0.0001582,
        "meta_inclination": 0.0371,
        "meta_ra_of_asc_node": 61.6198,
        "meta_arg_of_pericenter": 211.8137,
        "meta_mean_anomaly": 239.5924,
        "meta_ephemeris_type": 0,
        "meta_classification_type": "U",
        "meta_norad_cat_id": 62876,
        "meta_element_set_no": 999,
        "meta_rev_at_epoch": 311,
        "meta_bstar": 0,
        "meta_mean_motion_dot": -2.14e-06,
        "meta_mean_motion_ddot": 0,
        "tle_line1": "1 62876U 25023A   25348.94072493 -.00000214  00000+0  00000+0 0  9997",
        "tle_line2": "2 62876   0.0371  61.6198 0001582 211.8137 239.5924  1.00274112  3119"
      },
      "geometry": {
        "type": "Point",
        "coordinates": [
          53.41611135074125,
          0.014397465578678463
        ]
      }
    },
    {
      "type": "Feature",
      "properties": {
        "norad_id": 63130,
        "name": "COSMOS 2584 (704K)",
        "group": "gnss",
        "lat": 1.0337874245195426,
        "lon": 79.53391917364107,
        "alt_km": 19145.97456297156,
        "timestamp": "2025-12-15T15:53:20.099366+00:00",
        "meta_object_name": "COSMOS 2584 (704K)",
        "meta_object_id": "2025-042A",
        "meta_epoch": "2025-12-14T06:03:59.682240",
        "meta_mean_motion": 2.13103048,
        "meta_eccentricity": 0.0007684,
        "meta_inclination": 64.9768,
        "meta_ra_of_asc_node": 79.0943,
        "meta_arg_of_pericenter": 217.8285,
        "meta_mean_anomaly": 142.1308,
        "meta_ephemeris_type": 0,
        "meta_classification_type": "U",
        "meta_norad_cat_id": 63130,
        "meta_element_set_no": 999,
        "meta_rev_at_epoch": 610,
        "meta_bstar": 0,
        "meta_mean_motion_dot": -5.4e-07,
        "meta_mean_motion_ddot": 0,
        "tle_line1": "1 63130U 25042A   25348.25277410 -.00000054  00000+0  00000+0 0  9994",
        "tle_line2": "2 63130  64.9768  79.0943 0007684 217.8285 142.1308  2.13103048  6103"
      },
      "geometry": {
        "type": "Point",
        "coordinates": [
          79.53391917364107,
          1.0337874245195426
        ]
      }
    },
    {
      "type": "Feature",
      "properties": {
        "norad_id": 64202,
        "name": "GPS BIII-8  (PRN 21)",
        "group": "gnss",
        "lat": 31.892104887491794,
        "lon": 64.25291026236135,
        "alt_km": 20179.29300259735,
        "timestamp": "2025-12-15T15:53:20.099377+00:00",
        "meta_object_name": "GPS BIII-8  (PRN 21)",
        "meta_object_id": "2025-116A",
        "meta_epoch": "2025-12-14T02:46:13.653120",
        "meta_mean_motion": 2.00558299,
        "meta_eccentricity": 0.00056153,
        "meta_inclination": 55.1067,
        "meta_ra_of_asc_node": 38.5851,
        "meta_arg_of_pericenter": 308.147,
        "meta_mean_anomaly": 55.2369,
        "meta_ephemeris_type": 0,
        "meta_classification_type": "U",
        "meta_norad_cat_id": 64202,
        "meta_element_set_no": 999,
        "meta_rev_at_epoch": 416,
        "meta_bstar": 0,
        "meta_mean_motion_dot": -9.6e-07,
        "meta_mean_motion_ddot": 0,
        "tle_line1": "1 64202U 25116A   25348.11543580 -.00000096  00000+0  00000+0 0  9992",
        "tle_line2": "2 64202  55.1067  38.5851 0005615 308.1470  55.2369  2.00558299  4161"
      },
      "geometry": {
        "type": "Point",
        "coordinates": [
          64.25291026236135,
          31.892104887491794
        ]
      }
    },
    {
      "type": "Feature",
      "properties": {
        "norad_id": 65590,
        "name": "COSMOS 2596 (708K)",
        "group": "gnss",
        "lat": 51.82096153836519,
        "lon": 104.47053395673178,
        "alt_km": 19159.772975853946,
        "timestamp": "2025-12-15T15:53:20.099389+00:00",
        "meta_object_name": "COSMOS 2596 (708K)",
        "meta_object_id": "2025-206B",
        "meta_epoch": "2025-12-14T19:11:43.005984",
        "meta_mean_motion": 2.13100538,
        "meta_eccentricity": 0.00140549,
        "meta_inclination": 64.743,
        "meta_ra_of_asc_node": 321.4024,
        "meta_arg_of_pericenter": 306.7253,
        "meta_mean_anomaly": 231.3639,
        "meta_ephemeris_type": 0,
        "meta_classification_type": "U",
        "meta_norad_cat_id": 65590,
        "meta_element_set_no": 999,
        "meta_rev_at_epoch": 198,
        "meta_bstar": 0,
        "meta_mean_motion_dot": -6.7e-07,
        "meta_mean_motion_ddot": 0,
        "tle_line1": "1 65590U 25206B   25348.79980331 -.00000067  00000+0  00000+0 0  9994",
        "tle_line2": "2 65590  64.7430 321.4024 0014054 306.7253 231.3639  2.13100538  1985"
      },
      "geometry": {
        "type": "Point",
        "coordinates": [
          104.47053395673178,
          51.82096153836519
        ]
      }
    }
  ]
}